2022-167A               
1 54682U 22167A   22361.12385145  .00009808  00000+0  62377-3 0  9998
2 54682  97.5359 135.8003 0013932 200.4399 334.6109 15.08933329  2696
2022-167B               
1 54683U 22167B   22361.10786311  .00034092  00000+0  38199-3 0  9995
2 54683  97.5881 136.8247 0201610 261.4446  96.3863 15.41634458  2721
CAS-5A (FO-118)         
1 54684U 22167C   22361.11187302  .00007575  00000+0  48214-3 0  9997
2 54684  97.5391 135.7972 0014247 202.1011 273.6401 15.08981505  2683
2022-167D               
1 54685U 22167D   22361.10472819  .00005020  00000+0  31615-3 0  9997
2 54685  97.5434 135.8184 0013152 214.6298 261.6210 15.09548895  2684
2022-167E               
1 54686U 22167E   22361.10451782  .00005032  00000+0  31700-3 0  9992
2 54686  97.5394 135.8078 0012734 215.3696 259.5170 15.09545120  2686
2022-167F               
1 54687U 22167F   22361.23703799  .00007798  00000+0  48732-3 0  9999
2 54687  97.5382 135.9382 0013344 215.3384 263.6192 15.09653853  2701
2022-167G               
1 54688U 22167G   22361.23610251  .00008404  00000+0  52302-3 0  9993
2 54688  97.5346 135.9324 0013803 216.0827 263.6074 15.09773128  2705
2022-167H               
1 54689U 22167H   22361.25200909  .00004847  00000+0  30434-3 0  9990
2 54689  97.5454 135.9712 0013923 215.2387 348.7542 15.09670179  2709
2022-167J               
1 54690U 22167J   22361.23452756  .00004852  00000+0  30333-3 0  9993
2 54690  97.5330 135.9306 0014213 218.0459 260.6290 15.09820189  2707
2022-167K               
1 54691U 22167K   22361.03933696  .00007239  00000+0  45169-3 0  9994
2 54691  97.5391 135.7527 0014389 216.6359 276.9884 15.09721002  2674
2022-167L               
1 54692U 22167L   22361.23441037  .00004844  00000+0  30272-3 0  9998
2 54692  97.5444 135.9549 0014929 217.0578 261.4642 15.09827134  2706
2022-167M               
1 54693U 22167M   22361.24559325  .00010571  00000+0  67113-3 0  9998
2 54693  97.5416 135.9327 0014470 200.0166 277.0419 15.08967972  2671
2022-167N               
1 54694U 22167N   22361.24919080  .00004932  00000+0  30720-3 0  9995
2 54694  97.5355 135.9530 0015055 218.7553 347.0111 15.09936623  2707
2022-167P               
1 54695U 22167P   22361.23310367  .00004878  00000+0  30389-3 0  9998
2 54695  97.5393 135.9468 0015334 218.7378 259.7821 15.09937904  2705
FALCON 9 R/B            
1 54698U 22168C   22345.32368031  .00002049 -64822-5  00000+0 0  9995
2 54698  29.0000  41.2312 0098300  59.8200  27.0300 16.15592824    07
2022-169A               
1 54699U 22169A   22361.01780075  .00000059  00000+0  76521-4 0  9993
2 54699  59.9961 108.6651 0006504 268.1091  91.9224 14.29222273  2095
2022-169B               
1 54700U 22169B   22361.30293964  .00000048  00000+0  73191-4 0  9992
2 54700  59.9951 107.7640 0006771 248.5687 111.4652 14.28667854  2139
2022-169C               
1 54701U 22169C   22361.22689070  .00000137  00000+0  73063-4 0  9998
2 54701  59.9566 106.2604 0094976  52.4600 308.5027 14.49499207  2152
2022-169D               
1 54702U 22169D   22361.01869697  .00000635  00000+0  30277-3 0  9993
2 54702  59.9978 108.6723 0006074 259.9651 100.0702 14.29145008  2105
SZ-14 MODULE            
1 54704U 22060G   22361.13504630  .00023251  00000+0  27165-3 0  9992
2 54704  41.4868 124.1961 0008709 230.4977 121.6591 15.61007331  3288
GALAXY 35 (G-35)        
1 54741U 22170A   22360.52969390  .00000137  00000+0  00000+0 0  9998
2 54741   0.0432 240.5136 0002310 138.9565 116.1683  1.00272796   185
GALAXY 36 (G-36)        
1 54742U 22170B   22359.59718684  .00000140  00000+0  00000+0 0  9996
2 54742   0.0048 292.4056 0001503 316.8886 269.7979  1.00269339   184
METEOSAT-12 (MTG-1)     
1 54743U 22170C   22353.31524981 -.00000002  00000+0  00000+0 0  9994
2 54743   5.5504 217.8990 7131836 181.4542 110.3708  2.25104636   115
ARIANE 5 DEB [SYLDA]    
1 54744U 22170D   22358.99303774  .00021874  00000+0  52685-2 0  9997
2 54744   5.9894 214.3724 7279321 187.1819 148.9715  2.28709640   250
ARIANE 5 R/B            
1 54745U 22170E   22360.24726110  .00005284  00000+0  98731-3 0  9992
2 54745   5.7425 215.8082 7276503 186.0883 153.6035  2.29694333   284
2022-171A               
1 54746U 22171A   22361.09108554 -.00000037  00000+0  00000+0 0  9994
2 54746  34.9942 257.7409 0007740   1.1808  93.8765 15.22616883  1886
2022-171B               
1 54747U 22171B   22361.16212769 -.00000038  00000+0  00000+0 0  9998
2 54747  34.9965 257.2269 0007745   3.9088 152.2330 15.23767563  1865
2022-171C               
1 54748U 22171C   22361.09100455 -.00000037  00000+0  00000+0 0  9998
2 54748  34.9955 257.7263 0007244  41.6425  63.5177 15.22502152  1854
2022-171D               
1 54749U 22171D   22361.15313441 -.00000038  00000+0  00000+0 0  9998
2 54749  34.9965 257.2357 0008328  15.2125 106.9653 15.24145401  1867
2022-171E               
1 54750U 22171E   22361.16402255 -.00000038  00000+0  00000+0 0  9993
2 54750  34.9956 257.2328 0012682  19.6648 137.0963 15.22597858  1856
2022-167Q               
1 54751U 22167Q   22361.09742020  .00006571  00000+0  41032-3 0  9999
2 54751  97.5369 135.7990 0013611 217.2238 229.5977 15.09738714  2349
SHIYAN 21               
1 54752U 22172A   22361.23897966  .00007952  00000+0  28809-3 0  9993
2 54752  36.0005  86.1956 0013092  36.0911  60.0592 15.27731338  1686
SWOT                    
1 54754U 22173A   22361.10572327  .00138234  00000+0  76186-1 0  9990
2 54754  77.5920 311.4888 0011085   3.8407 356.0232 14.10505236  1499
2022-174A               
1 54755U 22174A   22355.42611364  .00000047  00000+0  00000+0 0  9995
2 54755   9.6166 254.1820 1871681 193.2946 161.0222  7.26208660   331
2022-174B               
1 54756U 22174B   22360.78712350  .00000048  00000+0  00000+0 0  9999
2 54756   9.6185 246.4541 1870242 208.5170 139.8629  7.26305525   712
2022-174C               
1 54757U 22174C   22359.84060832  .00000046  00000+0  00000+0 0  9994
2 54757   9.4788 247.7913 1848234 205.5873 141.3306  7.21213522   631
XW-4 (CAS-10)           
1 54816U 21035C   22361.33185932  .00075427  00000+0  83721-3 0  9991
2 54816  41.4770 123.0369 0007797 251.9938 108.0062 15.61910745  1322
2022-163D               
1 54817U 22163D   22360.86591953  .00000023  00000+0  70397-4 0  9992
2 54817  67.1408 309.8399 0011972 322.2974  37.7270 13.96889337   309
